start=new Date('2023-06-16T00:00:00.000Z').valueOf();
sats=[{"ECCENTRICITY":"0.00008490","OBJECT_NAME":"STARLINK-4454","CLASSIFICATION_TYPE":"U","GP_ID":"233989516","OBJECT_ID":"2022-099AL","INCLINATION":"97.6573","MEAN_MOTION_DOT":"0.00002733","PERIOD":"95.920","MEAN_MOTION":"15.01252123","RA_OF_ASC_NODE":"287.4554","EPHEMERIS_TYPE":"0","TLE_LINE2":"2 53499  97.6573 287.4554 0000849  99.6126 260.5194 15.01252123 46209","SEMIMAJOR_AXIS":"6941.171","OBJECT_TYPE":"PAYLOAD","BSTAR":"0.00021734000000","SITE":"AFWTR","APOAPSIS":"563.625","CENTER_NAME":"EARTH","MEAN_ANOMALY":"260.5194","MEAN_ELEMENT_THEORY":"SGP4","FILE":"3933820","EPOCH":"2023-06-15T08:44:11.498208","DECAY_DATE":null,"LAUNCH_DATE":"2022-08-12","MEAN_MOTION_DDOT":"0.0000000000000","RCS_SIZE":"LARGE","NORAD_CAT_ID":"53499","COUNTRY_CODE":"US","REF_FRAME":"TEME","TLE_LINE1":"1 53499U 22099AL  23166.36402197  .00002733  00000-0  21734-3 0  9997","TIME_SYSTEM":"UTC","REV_AT_EPOCH":"4620","PERIAPSIS":"562.447","ARG_OF_PERICENTER":"99.6126","ELEMENT_SET_NO":"999"},{"ECCENTRICITY":"0.00024000","OBJECT_NAME":"STARLINK-4455","CLASSIFICATION_TYPE":"U","GP_ID":"234021735","OBJECT_ID":"2022-099AM","MEAN_MOTION_DOT":"0.00000804","INCLINATION":"97.6576","PERIOD":"95.919","RA_OF_ASC_NODE":"287.8603","MEAN_MOTION":"15.01261381","EPHEMERIS_TYPE":"0","TLE_LINE2":"2 53500  97.6576 287.8603 0002400 141.8953 218.2441 15.01261381 46264","SEMIMAJOR_AXIS":"6941.143","BSTAR":"0.00006719400000","OBJECT_TYPE":"PAYLOAD","SITE":"AFWTR","CENTER_NAME":"EARTH","APOAPSIS":"564.673","MEAN_ELEMENT_THEORY":"SGP4","MEAN_ANOMALY":"218.2441","EPOCH":"2023-06-15T18:14:43.858176","FILE":"3934071","DECAY_DATE":null,"LAUNCH_DATE":"2022-08-12","MEAN_MOTION_DDOT":"0.0000000000000","RCS_SIZE":"LARGE","NORAD_CAT_ID":"53500","COUNTRY_CODE":"US","REF_FRAME":"TEME","TLE_LINE1":"1 53500U 22099AM  23166.76022984  .00000804  00000-0  67194-4 0  9994","TIME_SYSTEM":"UTC","PERIAPSIS":"561.342","REV_AT_EPOCH":"4626","ELEMENT_SET_NO":"999","ARG_OF_PERICENTER":"141.8953"},{"OBJECT_NAME":"STARLINK-4434","ECCENTRICITY":"0.00016390","CLASSIFICATION_TYPE":"U","INCLINATION":"97.6571","MEAN_MOTION_DOT":"0.00001272","PERIOD":"95.919","GP_ID":"233988014","OBJECT_ID":"2022-099AN","SEMIMAJOR_AXIS":"6941.144","OBJECT_TYPE":"PAYLOAD","BSTAR":"0.00010358000000","MEAN_MOTION":"15.01260860","RA_OF_ASC_NODE":"287.4664","TLE_LINE2":"2 53501  97.6571 287.4664 0001639 102.3830 257.7577 15.01260860 46205","EPHEMERIS_TYPE":"0","SITE":"AFWTR","APOAPSIS":"564.147","CENTER_NAME":"EARTH","EPOCH":"2023-06-15T08:23:12.546528","FILE":"3933820","LAUNCH_DATE":"2022-08-12","DECAY_DATE":null,"MEAN_ANOMALY":"257.7577","MEAN_ELEMENT_THEORY":"SGP4","COUNTRY_CODE":"US","RCS_SIZE":"LARGE","MEAN_MOTION_DDOT":"0.0000000000000","NORAD_CAT_ID":"53501","TLE_LINE1":"1 53501U 22099AN  23166.34945077  .00001272  00000-0  10358-3 0  9995","TIME_SYSTEM":"UTC","REF_FRAME":"TEME","ARG_OF_PERICENTER":"102.3830","ELEMENT_SET_NO":"999","REV_AT_EPOCH":"4620","PERIAPSIS":"561.872"},{"INCLINATION":"97.6573","MEAN_MOTION_DOT":"-0.00000998","PERIOD":"95.919","GP_ID":"234021236","OBJECT_ID":"2022-099AP","OBJECT_NAME":"STARLINK-4435","ECCENTRICITY":"0.00013640","CLASSIFICATION_TYPE":"U","SITE":"AFWTR","CENTER_NAME":"EARTH","APOAPSIS":"563.920","SEMIMAJOR_AXIS":"6941.108","OBJECT_TYPE":"PAYLOAD","BSTAR":"-0.00007308800000","RA_OF_ASC_NODE":"287.8601","MEAN_MOTION":"15.01272464","TLE_LINE2":"2 53502  97.6573 287.8601 0001364 128.8625 231.2721 15.01272464 46260","EPHEMERIS_TYPE":"0","COUNTRY_CODE":"US","RCS_SIZE":"LARGE","MEAN_MOTION_DDOT":"0.0000000000000","NORAD_CAT_ID":"53502","FILE":"3934071","EPOCH":"2023-06-15T18:09:23.483520","DECAY_DATE":null,"LAUNCH_DATE":"2022-08-12","MEAN_ELEMENT_THEORY":"SGP4","MEAN_ANOMALY":"231.2721","ELEMENT_SET_NO":"999","ARG_OF_PERICENTER":"128.8625","PERIAPSIS":"562.027","REV_AT_EPOCH":"4626","TLE_LINE1":"1 53502U 22099AP  23166.75652180 -.00000998  00000-0 -73088-4 0  9997","TIME_SYSTEM":"UTC","REF_FRAME":"TEME"},{"APOAPSIS":"563.910","CENTER_NAME":"EARTH","SITE":"AFWTR","OBJECT_TYPE":"PAYLOAD","BSTAR":"0.00006971200000","SEMIMAJOR_AXIS":"6941.144","EPHEMERIS_TYPE":"0","TLE_LINE2":"2 53503  97.6565 287.4635 0001298 100.2646 259.8724 15.01260926 46201","MEAN_MOTION":"15.01260926","RA_OF_ASC_NODE":"287.4635","PERIOD":"95.919","MEAN_MOTION_DOT":"0.00000837","INCLINATION":"97.6565","OBJECT_ID":"2022-099AQ","GP_ID":"233989016","CLASSIFICATION_TYPE":"U","ECCENTRICITY":"0.00012980","OBJECT_NAME":"STARLINK-4461","ARG_OF_PERICENTER":"100.2646","ELEMENT_SET_NO":"999","REV_AT_EPOCH":"4620","PERIAPSIS":"562.108","TIME_SYSTEM":"UTC","TLE_LINE1":"1 53503U 22099AQ  23166.35105756  .00000837  00000-0  69712-4 0  9995","REF_FRAME":"TEME","COUNTRY_CODE":"US","NORAD_CAT_ID":"53503","RCS_SIZE":"LARGE","MEAN_MOTION_DDOT":"0.0000000000000","DECAY_DATE":null,"LAUNCH_DATE":"2022-08-12","EPOCH":"2023-06-15T08:25:31.373184","FILE":"3933820","MEAN_ELEMENT_THEORY":"SGP4","MEAN_ANOMALY":"259.8724"},{"LAUNCH_DATE":"2022-08-12","DECAY_DATE":null,"EPOCH":"2023-06-15T06:54:52.498368","FILE":"3933820","MEAN_ANOMALY":"259.8507","MEAN_ELEMENT_THEORY":"SGP4","COUNTRY_CODE":"US","NORAD_CAT_ID":"53504","RCS_SIZE":"LARGE","MEAN_MOTION_DDOT":"0.0000000000000","TIME_SYSTEM":"UTC","TLE_LINE1":"1 53504U 22099AR  23166.28810762  .00001079  00000-0  88568-4 0  9997","REF_FRAME":"TEME","ARG_OF_PERICENTER":"100.2871","ELEMENT_SET_NO":"999","REV_AT_EPOCH":"4619","PERIAPSIS":"562.060","CLASSIFICATION_TYPE":"U","ECCENTRICITY":"0.00013640","OBJECT_NAME":"STARLINK-4448","PERIOD":"95.919","INCLINATION":"97.6567","MEAN_MOTION_DOT":"0.00001079","OBJECT_ID":"2022-099AR","GP_ID":"233989767","OBJECT_TYPE":"PAYLOAD","BSTAR":"0.00008856800000","SEMIMAJOR_AXIS":"6941.142","EPHEMERIS_TYPE":"0","TLE_LINE2":"2 53504  97.6567 287.3995 0001364 100.2871 259.8507 15.01261686 46197","MEAN_MOTION":"15.01261686","RA_OF_ASC_NODE":"287.3995","APOAPSIS":"563.953","CENTER_NAME":"EARTH","SITE":"AFWTR"},{"APOAPSIS":"563.592","CENTER_NAME":"EARTH","SITE":"AFWTR","TLE_LINE2":"2 53505  97.6565 287.4602 0000814 123.5866 236.5436 15.01255039 46203","EPHEMERIS_TYPE":"0","MEAN_MOTION":"15.01255039","RA_OF_ASC_NODE":"287.4602","BSTAR":"0.00017686000000","OBJECT_TYPE":"PAYLOAD","SEMIMAJOR_AXIS":"6941.162","OBJECT_ID":"2022-099AS","GP_ID":"233988515","PERIOD":"95.920","INCLINATION":"97.6565","MEAN_MOTION_DOT":"0.00002213","CLASSIFICATION_TYPE":"U","ECCENTRICITY":"0.00008140","OBJECT_NAME":"STARLINK-4446","REV_AT_EPOCH":"4620","PERIAPSIS":"562.462","ARG_OF_PERICENTER":"123.5866","ELEMENT_SET_NO":"999","REF_FRAME":"TEME","TIME_SYSTEM":"UTC","TLE_LINE1":"1 53505U 22099AS  23166.34735531  .00002213  00000-0  17686-3 0  9998","NORAD_CAT_ID":"53505","MEAN_MOTION_DDOT":"0.0000000000000","RCS_SIZE":"MEDIUM","COUNTRY_CODE":"US","MEAN_ELEMENT_THEORY":"SGP4","MEAN_ANOMALY":"236.5436","LAUNCH_DATE":"2022-08-12","DECAY_DATE":null,"EPOCH":"2023-06-15T08:20:11.498784","FILE":"3933820"},{"MEAN_ELEMENT_THEORY":"SGP4","MEAN_ANOMALY":"265.9645","DECAY_DATE":null,"LAUNCH_DATE":"2022-08-12","FILE":"3934071","EPOCH":"2023-06-15T18:04:04.185408","NORAD_CAT_ID":"53506","MEAN_MOTION_DDOT":"0.0000000000000","RCS_SIZE":"LARGE","COUNTRY_CODE":"US","REF_FRAME":"TEME","TIME_SYSTEM":"UTC","TLE_LINE1":"1 53506U 22099AT  23166.75282622  .00000590  00000-0  50522-4 0  9995","PERIAPSIS":"561.696","REV_AT_EPOCH":"4626","ELEMENT_SET_NO":"999","ARG_OF_PERICENTER":"94.1796","CLASSIFICATION_TYPE":"U","OBJECT_NAME":"STARLINK-4437","ECCENTRICITY":"0.00018950","OBJECT_ID":"2022-099AT","GP_ID":"234020737","PERIOD":"95.919","INCLINATION":"97.6580","MEAN_MOTION_DOT":"0.00000590","EPHEMERIS_TYPE":"0","TLE_LINE2":"2 53506  97.6580 287.8502 0001895  94.1796 265.9645 15.01260134 46265","RA_OF_ASC_NODE":"287.8502","MEAN_MOTION":"15.01260134","OBJECT_TYPE":"PAYLOAD","BSTAR":"0.00005052200000","SEMIMAJOR_AXIS":"6941.146","CENTER_NAME":"EARTH","APOAPSIS":"564.327","SITE":"AFWTR"},{"DECAY_DATE":null,"LAUNCH_DATE":"2022-08-12","EPOCH":"2023-06-15T08:17:31.523136","FILE":"3933820","MEAN_ANOMALY":"256.0202","MEAN_ELEMENT_THEORY":"SGP4","COUNTRY_CODE":"US","NORAD_CAT_ID":"53507","MEAN_MOTION_DDOT":"0.0000000000000","RCS_SIZE":"LARGE","TIME_SYSTEM":"UTC","TLE_LINE1":"1 53507U 22099AU  23166.34550374  .00000845  00000-0  70354-4 0  9991","REF_FRAME":"TEME","ARG_OF_PERICENTER":"104.1188","ELEMENT_SET_NO":"999","REV_AT_EPOCH":"4620","PERIAPSIS":"561.976","CLASSIFICATION_TYPE":"U","ECCENTRICITY":"0.00014910","OBJECT_NAME":"STARLINK-4444","PERIOD":"95.919","INCLINATION":"97.6563","MEAN_MOTION_DOT":"0.00000845","OBJECT_ID":"2022-099AU","GP_ID":"233989517","BSTAR":"0.00007035400000","OBJECT_TYPE":"PAYLOAD","SEMIMAJOR_AXIS":"6941.146","TLE_LINE2":"2 53507  97.6563 287.4586 0001491 104.1188 256.0202 15.01260420 46206","EPHEMERIS_TYPE":"0","MEAN_MOTION":"15.01260420","RA_OF_ASC_NODE":"287.4586","APOAPSIS":"564.045","CENTER_NAME":"EARTH","SITE":"AFWTR"},{"TIME_SYSTEM":"UTC","TLE_LINE1":"1 53508U 22099AV  23166.34920452  .00001088  00000-0  89248-4 0  9992","REF_FRAME":"TEME","ELEMENT_SET_NO":"999","ARG_OF_PERICENTER":"109.6927","PERIAPSIS":"562.224","REV_AT_EPOCH":"4620","LAUNCH_DATE":"2022-08-12","DECAY_DATE":null,"EPOCH":"2023-06-15T08:22:51.270528","FILE":"3933820","MEAN_ELEMENT_THEORY":"SGP4","MEAN_ANOMALY":"250.4419","COUNTRY_CODE":"US","NORAD_CAT_ID":"53508","RCS_SIZE":"LARGE","MEAN_MOTION_DDOT":"0.0000000000000","BSTAR":"0.00008924800000","OBJECT_TYPE":"PAYLOAD","SEMIMAJOR_AXIS":"6941.140","TLE_LINE2":"2 53508  97.6562 287.4618 0001125 109.6927 250.4419 15.01262167 46205","EPHEMERIS_TYPE":"0","RA_OF_ASC_NODE":"287.4618","MEAN_MOTION":"15.01262167","CENTER_NAME":"EARTH","APOAPSIS":"563.786","SITE":"AFWTR","CLASSIFICATION_TYPE":"U","ECCENTRICITY":"0.00011250","OBJECT_NAME":"STARLINK-4443","PERIOD":"95.919","INCLINATION":"97.6562","MEAN_MOTION_DOT":"0.00001088","OBJECT_ID":"2022-099AV","GP_ID":"233989267"}];
